NUSAT-1 (FRESCO)        
1 41557U 16033B   22036.85698444  .00009446  00000+0  31326-3 0  9996
2 41557  97.3891 134.7199 0013334 122.0548  18.5485 15.31388632317227
BEESAT-4                
1 41619U 16040W   22036.39102240  .00013625  00000+0  50741-3 0  9992
2 41619  97.2379  90.7693 0009066 219.3189 140.7394 15.27545182300548
CAS-2T & KS-1Q          
1 41847U 16066G   22036.45986504  .00000837  00000+0  13701-3 0  9999
2 41847  98.5702 101.1829 0363767 244.4545 111.8619 14.38348846275379
NAYIF-1 (EO-88)         
1 42017U 17008BX  22036.65942720  .00013821  00000+0  47056-3 0  9997
2 42017  97.2874 104.9985 0005722  15.3634 344.7780 15.30504116276898
ZHUHAI-1 02 (CAS-4B)    
1 42759U 17034B   22036.91935490  .00002970  00000+0  18854-3 0  9991
2 42759  43.0187 337.0875 0007553 191.6580 218.7820 15.10837619256456
ZHUHAI-1 01 (CAS-4A)    
1 42761U 17034D   22036.90742300  .00003031  00000+0  19165-3 0  9994
2 42761  43.0193 336.0396 0008058 193.7927 274.3290 15.10925354256455
MAX VALIER SAT          
1 42778U 17036P   22036.57154147  .00006577  00000+0  26679-3 0  9999
2 42778  97.2256  82.2751 0013094  76.1689 284.1006 15.24862241256795
RADFXSAT (FOX-1B)       
1 43017U 17073E   22036.67577688  .00004150  00000+0  32181-3 0  9997
2 43017  97.6896 296.2429 0250816 258.9119  98.3798 14.80325227227619
FOX-1D (AO-92)          
1 43137U 18004AC  22036.46549600  .00010096  00000+0  38547-3 0  9993
2 43137  97.3829 113.0014 0009801 106.6578 253.5737 15.26794699226199
DIWATA-2B               
1 43678U 18084H   22036.73601114  .00001004  00000+0  10495-3 0  9991
2 43678  97.9490 168.6629 0010254   9.4022 350.7393 14.91908668178216
ES'HAIL 2               
1 43700U 18090A   22036.75738925  .00000138  00000+0  00000+0 0  9991
2 43700   0.0157 102.6348 0002311 246.6178  85.0431  1.00274079 11951
FOX-1CLIFF (AO-95)      
1 43770U 18099N   22036.42803926  .00001937  00000+0  17865-3 0  9994
2 43770  97.6384 106.1705 0014450   4.3014 355.8329 14.95740445173274
ITASAT 1                
1 43786U 18099AE  22036.17115830  .00001511  00000+0  13965-3 0  9998
2 43786  97.6409 106.7584 0014969 357.3297   2.7842 14.95976635173279
JY1SAT (JO-97)          
1 43803U 18099AX  22036.42564208  .00002306  00000+0  20861-3 0  9999
2 43803  97.6372 106.7438 0014814 356.7751   3.3372 14.96316815173323
UWE-4                   
1 43880U 18111E   22036.51871948  .00002295  00000+0  20237-3 0  9995
2 43880  97.6773 305.1507 0013303  46.6071 313.6257 14.97348093169954
NEXUS (FO-99)           
1 43937U 19003F   22036.55992477  .00010617  00000+0  39406-3 0  9999
2 43937  97.1488  75.2269 0020304 264.1282  95.7643 15.27557247169825
PSAT2 (NO-104)          
1 44354U 19036R   22036.26487421  .00062750  00000+0  72811-3 0  9997
2 44354  28.5297   3.8897 0284678 298.1035  59.1062 15.24414081144397
BRICSAT2 (NO-103)       
1 44355U 19036S   22036.79377847  .00192167  31568-5  12081-2 0  9993
2 44355  28.5210 261.1077 0160177 104.6559 257.1861 15.59577537145450
JAISAT-1                
1 44419U 19038F   22036.37259787  .00008078  00000+0  43342-3 0  9995
2 44419  97.6214   5.8069 0018961 225.1060 134.8633 15.15068327143040
DUCHIFAT-3              
1 44854U 19089C   22036.68683607  .00002913  00000+0  23542-3 0  9992
2 44854  36.9646 160.8678 0008143 239.4667 120.5403 15.00073976118137
CAS-6 (TO-108)          
1 44881U 19093C   22036.81960511  .00000405  00000+0  58268-4 0  9992
2 44881  97.9052 117.8774 0013587 253.5063 106.4653 14.81557718115281
RS-44 & BREEZE-KM R/B   
1 44909U 19096E   22036.53172589  .00000024  00000+0  59743-4 0  9991
2 44909  82.5243 317.9388 0216293 268.2338  89.3980 12.79712028 98638
ORBITAL FACTORY 2 (OF-2)
1 45113U 19071C   22036.55230511  .00019316  00000+0  49768-3 0  9993
2 45113  51.6414 345.0503 0011496  61.3147 298.8991 15.39156859113025
HUSKYSAT-1 (HO-107)     
1 45119U 19071J   22036.57577805  .00019224  00000+0  49958-3 0  9990
2 45119  51.6420 344.4416 0010975  57.8494 302.3554 15.38902222113028
BY70-2                  
1 45857U 20042B   22036.82494355  .00004307  00000+0  60277-3 0  9998
2 45857  97.9668 115.0705 0011414 174.8958 185.2459 14.78037002 86008
SALSAT                  
1 46495U 20068K   22036.57906811  .00003093  00000+0  22863-3 0  9992
2 46495  97.7181 338.0179 0016964   8.0880 352.0616 15.03849121 74361
BY70-3                  
1 46839U 20079N   22036.78794207  .00014761  00000+0  41412-3 0  9998
2 46839  97.2161 111.0673 0008058  87.7485  30.8059 15.36635235 69994
RADFXSAT-2 (AO-109)     
1 47311U 21002C   22036.54016064  .00009537  00000+0  40971-3 0  9997
2 47311  60.6870 137.9109 0024006 169.4726 190.6869 15.23060783 58357
UVSQ-SAT                
1 47438U 21006AB  22036.43179500  .00006271  00000+0  34754-3 0  9998
2 47438  97.4572  98.1887 0012838  20.2014 339.9723 15.14078431 57297
DIY-1 (ARDUIQUBE)       
1 47963U 21022AH  22036.45423417  .00015419  00000+0  96326-3 0  9997
2 47963  97.5443 299.6953 0016908 224.1132 135.8750 15.09435637 47019
XW-3 (CAS-9)            
1 50466U 21131B   22036.77611797  .00000062  00000+0  34953-4 0  9992
2 50466  98.5931 114.0385 0004869 166.5988 193.5332 14.38439255  5982
